*******************************************************************************
Ephemeris / WWW_USER Mon Mar 10 06:42:42 2025 Pasadena, USA      / Horizons    
*******************************************************************************
Target body name: (2018 TG6)                      {source: JPL#30}
Center body name: Earth (399)                     {source: DE441}
Center-site name: Mauna Kea
*******************************************************************************
Start time      : A.D. 2018-Dec-31 04:03:00.0000 UT      
Stop  time      : A.D. 2018-Dec-31 16:46:00.0000 UT      
Step-size       : 1 minutes
*******************************************************************************
Target pole/equ : undefined
Target radii    : undefined                                                    
Center geodetic : 204.5278, 19.8260847, 4.21024   {E-lon(deg),Lat(deg),Alt(km)}
Center cylindric: 204.5278, 6006.35451, 2151.0229 {E-lon(deg),Dxy(km),Dz(km)}
Center pole/equ : ITRF93                          {East-longitude positive}
Center radii    : 6378.137, 6378.137, 6356.752 km {Equator_a, b, pole_c}       
Target primary  : Sun
Vis. interferer : MOON (R_eq= 1737.400) km        {source: DE441}
Rel. light bend : Sun                             {source: DE441}
Rel. lght bnd GM: 1.3271E+11 km^3/s^2                                          
Small-body perts: Yes                             {source: SB441-N16}
Atmos refraction: NO (AIRLESS)
RA format       : HMS
Time format     : CAL 
Calendar mode   : Mixed Julian/Gregorian
RTS-only print  : NO       
EOP file        : eop.250307.p250603                                           
EOP coverage    : DATA-BASED 1962-JAN-20 TO 2025-MAR-07. PREDICTS-> 2025-JUN-02
Units conversion: 1 au= 149597870.700 km, c= 299792.458 km/s, 1 day= 86400.0 s 
Table cut-offs 1: Elevation (-90.0deg=NO ),Airmass (>38.000=NO), Daylight (YES)
Table cut-offs 2: Solar elongation (  0.0,180.0=NO ),Local Hour Angle( 0.0=NO )
Table cut-offs 3: RA/DEC angular rate (     0.0=NO )                           
*******************************************************************************
Initial IAU76/J2000 heliocentric ecliptic osculating elements (au, days, deg.):
  EPOCH=  2458431.5 ! 2018-Nov-09.00 (TDB)         Residual RMS= .2345         
   EC= .08078462401503236  QR= .9719826736009184   TP= 2458484.4320189627      
   OM= 45.37159736002829   W=  55.46172815883946   IN= 1.097814612439332       
  Equivalent ICRF heliocentric cartesian coordinates (au, au/d):
   X= 7.039692724255667E-01  Y= 6.572194580492579E-01  Z= 2.849862807208282E-01
  VX=-1.330010453008250E-02 VY= 1.042346427712734E-02 VZ= 4.885657766154543E-03
Asteroid physical parameters (km, seconds, rotational period in hours):        
   GM= n.a.                RAD= n.a.               ROTPER= n.a.                
   H= 27.25                G= .150                 B-V= n.a.                   
                           ALBEDO= n.a.            STYP= n.a.                  
*******************************************************************************
 Date__(UT)__HR:MN     R.A._________(ICRF)_________DEC
******************************************************
$$SOE
 2018-Dec-31 16:21 Nm  14 47 47.389098 +15 40 07.58562
 2018-Dec-31 16:22 Nm  14 47 47.193030 +15 40 06.45443
 2018-Dec-31 16:23 Nm  14 47 46.996716 +15 40 05.32169
 2018-Dec-31 16:24 Nm  14 47 46.800158 +15 40 04.18738
 2018-Dec-31 16:25 Nm  14 47 46.603358 +15 40 03.05151
 2018-Dec-31 16:26 Nm  14 47 46.406318 +15 40 01.91407
 2018-Dec-31 16:27 Nm  14 47 46.209040 +15 40 00.77506
 2018-Dec-31 16:28 Nm  14 47 46.011526 +15 39 59.63448
 2018-Dec-31 16:29 Nm  14 47 45.813777 +15 39 58.49231
 2018-Dec-31 16:30 Nm  14 47 45.615795 +15 39 57.34856
 2018-Dec-31 16:31 Nm  14 47 45.417583 +15 39 56.20322
 2018-Dec-31 16:32 Nm  14 47 45.219141 +15 39 55.05629
 2018-Dec-31 16:33 Cm  14 47 45.020472 +15 39 53.90776
 2018-Dec-31 16:34 Cm  14 47 44.821577 +15 39 52.75763
 2018-Dec-31 16:35 Cm  14 47 44.622459 +15 39 51.60590
 2018-Dec-31 16:36 Cm  14 47 44.423119 +15 39 50.45256
 2018-Dec-31 16:37 Cm  14 47 44.223559 +15 39 49.29761
 2018-Dec-31 16:38 Cm  14 47 44.023782 +15 39 48.14104
 2018-Dec-31 16:39 Cm  14 47 43.823788 +15 39 46.98285
 2018-Dec-31 16:40 Cm  14 47 43.623580 +15 39 45.82305
 2018-Dec-31 16:41 Cm  14 47 43.423159 +15 39 44.66161
 2018-Dec-31 16:42 Cm  14 47 43.222528 +15 39 43.49855
 2018-Dec-31 16:43 Cm  14 47 43.021689 +15 39 42.33385
 2018-Dec-31 16:44 Cm  14 47 42.820642 +15 39 41.16751
 2018-Dec-31 16:45 Cm  14 47 42.619391 +15 39 39.99954
 2018-Dec-31 16:46 Cm  14 47 42.417937 +15 39 38.82992
